*******************************************************************************
Ephemeris / WWW_USER Mon Mar 24 07:01:15 2025 Pasadena, USA      / Horizons    
*******************************************************************************
Target body name: Triton (801)                    {source: nep097_merged}
Center body name: Earth (399)                     {source: nep097_merged}
Center-site name: Mauna Kea
*******************************************************************************
Start time      : A.D. 2018-Dec-22 03:58:00.0000 UT      
Stop  time      : A.D. 2018-Dec-22 16:42:00.0000 UT      
Step-size       : 1 minutes
*******************************************************************************
Target pole/equ : IAU_TRITON                      {East-longitude positive}
Target radii    : 1352.6, 1352.6, 1352.6 km       {Equator_a, b, pole_c}       
Center geodetic : 204.5278, 19.8260847, 4.21024   {E-lon(deg),Lat(deg),Alt(km)}
Center cylindric: 204.5278, 6006.35451, 2151.0229 {E-lon(deg),Dxy(km),Dz(km)}
Center pole/equ : ITRF93                          {East-longitude positive}
Center radii    : 6378.137, 6378.137, 6356.752 km {Equator_a, b, pole_c}       
Target primary  : Neptune
Vis. interferer : MOON (R_eq= 1737.400) km        {source: DE441}
Rel. light bend : Sun                             {source: nep097_merged}
Rel. lght bnd GM: 1.3271E+11 km^3/s^2                                          
Atmos refraction: NO (AIRLESS)
RA format       : HMS
Time format     : CAL 
Calendar mode   : Mixed Julian/Gregorian
RTS-only print  : NO       
EOP file        : eop.250321.p250617                                           
EOP coverage    : DATA-BASED 1962-JAN-20 TO 2025-MAR-21. PREDICTS-> 2025-JUN-16
Units conversion: 1 au= 149597870.700 km, c= 299792.458 km/s, 1 day= 86400.0 s 
Table cut-offs 1: Elevation (-90.0deg=NO ),Airmass (>38.000=NO), Daylight (YES)
Table cut-offs 2: Solar elongation (  0.0,180.0=NO ),Local Hour Angle( 0.0=NO )
Table cut-offs 3: RA/DEC angular rate (     0.0=NO )                           
*******************************************************************************
 Date__(UT)__HR:MN     R.A._________(ICRF)_________DEC
******************************************************
$$SOE
 2018-Dec-22 15:38 Am  23 01 16.223543 -07 19 23.87254
 2018-Dec-22 15:39 Am  23 01 16.226324 -07 19 23.86332
 2018-Dec-22 15:40 Am  23 01 16.229106 -07 19 23.85412
 2018-Dec-22 15:41 Am  23 01 16.231887 -07 19 23.84491
 2018-Dec-22 15:42 Am  23 01 16.234668 -07 19 23.83572
 2018-Dec-22 15:43 Am  23 01 16.237448 -07 19 23.82653
 2018-Dec-22 15:44 Am  23 01 16.240228 -07 19 23.81735
 2018-Dec-22 15:45 Am  23 01 16.243007 -07 19 23.80817
 2018-Dec-22 15:46 Am  23 01 16.245787 -07 19 23.79900
 2018-Dec-22 15:47 Am  23 01 16.248565 -07 19 23.78984
 2018-Dec-22 15:48 Am  23 01 16.251344 -07 19 23.78068
 2018-Dec-22 15:49 Am  23 01 16.254122 -07 19 23.77153
 2018-Dec-22 15:50 Am  23 01 16.256899 -07 19 23.76239
 2018-Dec-22 15:51 Am  23 01 16.259676 -07 19 23.75325
 2018-Dec-22 15:52 Am  23 01 16.262453 -07 19 23.74412
 2018-Dec-22 15:53 Am  23 01 16.265230 -07 19 23.73500
 2018-Dec-22 15:54 Am  23 01 16.268005 -07 19 23.72588
 2018-Dec-22 15:55 Am  23 01 16.270781 -07 19 23.71677
 2018-Dec-22 15:56 Am  23 01 16.273556 -07 19 23.70767
 2018-Dec-22 15:57 Am  23 01 16.276331 -07 19 23.69857
 2018-Dec-22 15:58 Am  23 01 16.279105 -07 19 23.68948
 2018-Dec-22 15:59 Am  23 01 16.281879 -07 19 23.68039
 2018-Dec-22 16:00 Am  23 01 16.284653 -07 19 23.67132
 2018-Dec-22 16:01 Am  23 01 16.287426 -07 19 23.66225
 2018-Dec-22 16:02 Nm  23 01 16.290198 -07 19 23.65318
 2018-Dec-22 16:03 Nm  23 01 16.292971 -07 19 23.64412
 2018-Dec-22 16:04 Nm  23 01 16.295742 -07 19 23.63507
 2018-Dec-22 16:05 Nm  23 01 16.298514 -07 19 23.62602
 2018-Dec-22 16:06 Nm  23 01 16.301285 -07 19 23.61699
 2018-Dec-22 16:07 Nm  23 01 16.304055 -07 19 23.60795
 2018-Dec-22 16:08 Nm  23 01 16.306825 -07 19 23.59893
 2018-Dec-22 16:09 Nm  23 01 16.309595 -07 19 23.58991
 2018-Dec-22 16:10 Nm  23 01 16.312364 -07 19 23.58089
 2018-Dec-22 16:11 Nm  23 01 16.315133 -07 19 23.57189
 2018-Dec-22 16:12 Nm  23 01 16.317901 -07 19 23.56289
 2018-Dec-22 16:13 Nm  23 01 16.320669 -07 19 23.55389
 2018-Dec-22 16:14 Nm  23 01 16.323437 -07 19 23.54491
 2018-Dec-22 16:15 Nm  23 01 16.326204 -07 19 23.53593
 2018-Dec-22 16:16 Nm  23 01 16.328971 -07 19 23.52695
 2018-Dec-22 16:17 Nm  23 01 16.331737 -07 19 23.51798
 2018-Dec-22 16:18 Nm  23 01 16.334503 -07 19 23.50902
 2018-Dec-22 16:19 Nm  23 01 16.337268 -07 19 23.50007
 2018-Dec-22 16:20 Nm  23 01 16.340033 -07 19 23.49112
 2018-Dec-22 16:21 Nm  23 01 16.342797 -07 19 23.48218
 2018-Dec-22 16:22 Nm  23 01 16.345561 -07 19 23.47324
 2018-Dec-22 16:23 Nm  23 01 16.348325 -07 19 23.46431
 2018-Dec-22 16:24 Nm  23 01 16.351088 -07 19 23.45539
 2018-Dec-22 16:25 Nm  23 01 16.353850 -07 19 23.44647
 2018-Dec-22 16:26 Nm  23 01 16.356612 -07 19 23.43756
 2018-Dec-22 16:27 Nm  23 01 16.359374 -07 19 23.42866
 2018-Dec-22 16:28 Nm  23 01 16.362135 -07 19 23.41976
 2018-Dec-22 16:29 Cm  23 01 16.364896 -07 19 23.41087
 2018-Dec-22 16:30 Cm  23 01 16.367656 -07 19 23.40198
 2018-Dec-22 16:31 Cm  23 01 16.370416 -07 19 23.39310
 2018-Dec-22 16:32 Cm  23 01 16.373175 -07 19 23.38423
 2018-Dec-22 16:33 Cm  23 01 16.375934 -07 19 23.37537
 2018-Dec-22 16:34 Cm  23 01 16.378693 -07 19 23.36651
 2018-Dec-22 16:35 Cm  23 01 16.381450 -07 19 23.35765
 2018-Dec-22 16:36 Cm  23 01 16.384208 -07 19 23.34881
 2018-Dec-22 16:37 Cm  23 01 16.386965 -07 19 23.33997
 2018-Dec-22 16:38 Cm  23 01 16.389721 -07 19 23.33113
 2018-Dec-22 16:39 Cm  23 01 16.392477 -07 19 23.32231
 2018-Dec-22 16:40 Cm  23 01 16.395233 -07 19 23.31348
 2018-Dec-22 16:41 Cm  23 01 16.397988 -07 19 23.30467
 2018-Dec-22 16:42 Cm  23 01 16.400743 -07 19 23.29586
